STARLINK-34490          
1 64478U 25133G   26160.41073362  .00019183  00000+0  65761-3 0  9993
2 64478  53.1600  50.6016 0001175  98.8020 261.3114 15.30224719 55232
STARLINK-34528          
1 64479U 25133H   26160.41843748  .00033643  00000+0  10022-2 0  9993
2 64479  53.1606  47.8115 0001396  70.2333 289.8821 15.34407478 55254
STARLINK-34518          
1 64480U 25133J   26160.40757042  .00019225  00000+0  65922-3 0  9995
2 64480  53.1597  50.5818 0001157  83.5569 276.5563 15.30215121 55073
STARLINK-34526          
1 64481U 25133K   26160.40440320  .00018238  00000+0  62605-3 0  9992
2 64481  53.1590  50.5602 0000910  88.8657 271.2448 15.30216873 55125
STARLINK-34527          
1 64482U 25133L   26160.39490127  .00021520  00000+0  73591-3 0  9995
2 64482  53.1595  50.5008 0001399 116.0780 244.0365 15.30230295 55236
STARLINK-34420          
1 64483U 25133M   26160.38859148  .00024078  00000+0  82221-3 0  9998
2 64483  53.1582  50.4588 0001149  82.0996 278.0135 15.30209348 55236
STARLINK-34509          
1 64484U 25133N   26159.99363498  .00021346  00000+0  73045-3 0  9991
2 64484  53.1579  52.9718 0001624  91.3984 268.7203 15.30212998 55162
STARLINK-34409          
1 64485U 25133P   26159.99152440  .00024400  00000+0  83293-3 0  9995
2 64485  53.1584  52.9567 0000948 103.0604 257.0502 15.30211402 55161
STARLINK-34520          
1 64486U 25133Q   26159.98835891  .00019287  00000+0  66139-3 0  9990
2 64486  53.1599  52.9349 0001367  72.9674 287.1476 15.30211388 55160
STARLINK-34477          
1 64487U 25133R   26159.98519390  .00016116  00000+0  55492-3 0  9992
2 64487  53.1597  52.9189 0001521  77.1476 282.9694 15.30208771 55156
STARLINK-34217          
1 64488U 25133S   26159.98202773  .00022410  00000+0  76630-3 0  9998
2 64488  53.1592  52.8945 0001006 111.4448 248.6660 15.30207517 55058
STARLINK-34307          
1 64489U 25133T   26159.97886255  .00016318  00000+0  56177-3 0  9995
2 64489  53.1597  52.8766 0001245 103.3960 256.7179 15.30204942 55143
STARLINK-34505          
1 64490U 25133U   26160.43288385  .00011605  00000+0  40343-3 0  9992
2 64490  53.1598  50.7302 0001474  93.7718 266.3451 15.30192753 55210
STARLINK-34530          
1 64491U 25133V   26159.97300714  .00025438  00000+0  76116-3 0  9997
2 64491  53.1593  50.0003 0001540  67.4418 292.6748 15.34412307 55176
STARLINK-34522          
1 64492U 25133W   26160.42475030  .00021121  00000+0  63427-3 0  9990
2 64492  53.1600  47.8460 0001498  57.8370 302.2778 15.34411071 55278
STARLINK-34462          
1 64493U 25133X   26160.42264427 -.00000614  00000+0 -70245-5 0  9991
2 64493  53.1591  47.8303 0001174  77.4378 282.6756 15.34399204 55271
STARLINK-34226          
1 64494U 25133Y   26160.40860325  .00036621  00000+0  11831-2 0  9997
2 64494  53.1603  50.5785 0000831 105.2309 254.8784 15.31781353 55060
STARLINK-34364          
1 64495U 25133Z   26159.98133157  .00025789  00000+0  77150-3 0  9995
2 64495  53.1601  49.3271 0000998 104.2215 255.8899 15.34410835 55216
STARLINK-34363          
1 64497U 25133AB  26160.41633076  .00035201  00000+0  10475-2 0  9998
2 64497  53.1596  47.7890 0001232  70.2660 289.8476 15.34418209 55275
STARLINK-34427          
1 64498U 25133AC  26160.40968070  .00010797  00000+0  37602-3 0  9998
2 64498  53.1614  50.5824 0001568  83.0759 277.0420 15.30209304 55233
STARLINK-34280          
1 64594U 25137A   26160.57835108  .00018955  00000+0  65027-3 0  9998
2 64594  53.1593 268.4147 0001142  79.5507 280.5623 15.30209595 54801
STARLINK-34517          
1 64595U 25137B   26160.58337963 -.00001608  00000+0 -36487-4 0  9994
2 64595  53.1589 268.4901 0001604  90.3019 246.7694 15.34379260  5705
STARLINK-34510          
1 64596U 25137C   26160.52693314 -.00534844  00000+0 -19794-1 0  9996
2 64596  53.1575 268.8037 0015801 101.4627 258.8149 15.29326486 54796
STARLINK-34486          
1 64597U 25137D   26160.55102367  .00026918  00000+0  91747-3 0  9999
2 64597  53.1613 268.9494 0001285  71.8207 288.2934 15.30207399 54795
STARLINK-34463          
1 64598U 25137E   26160.58337963 -.00002027  00000+0 -48918-4 0  9995
2 64598  53.1581 268.5101 0001325  74.3374 251.1134 15.34374643  5876
STARLINK-34294          
1 64599U 25137F   26160.52780934  .00027722  00000+0  94402-3 0  9995
2 64599  53.1584 268.8084 0000974  86.9181 273.1932 15.30220160 54792
STARLINK-34504          
1 64600U 25137G   26160.54891690  .00027250  00000+0  92878-3 0  9993
2 64600  53.1590 268.9424 0001346  64.7925 295.3215 15.30200884 54796
STARLINK-34508          
1 64601U 25137H   26160.50353984  .00045752  00000+0  15451-2 0  9997
2 64601  53.1592 268.6550 0001463  68.0344 292.0812 15.30247547 54792
STARLINK-34435          
1 64602U 25137J   26160.58995537  .00017000  00000+0  58432-3 0  9994
2 64602  53.1593 268.4868 0001556  99.3188 260.7989 15.30224947 54808
STARLINK-34475          
1 64603U 25137K   26160.58361895  .00020206  00000+0  69191-3 0  9995
2 64603  53.1602 268.4479 0001454  99.1047 261.0119 15.30227290 54800
