OBJECT_NAME,OBJECT_ID,EPOCH,MEAN_MOTION,ECCENTRICITY,INCLINATION,RA_OF_ASC_NODE,ARG_OF_PERICENTER,MEAN_ANOMALY,EPHEMERIS_TYPE,CLASSIFICATION_TYPE,NORAD_CAT_ID,ELEMENT_SET_NO,REV_AT_EPOCH,BSTAR,MEAN_MOTION_DOT,MEAN_MOTION_DDOT
STARLINK-34490,2025-133G,2026-06-09T09:51:27.384768,15.30224719,.0001175,53.1600,50.6016,98.8020,261.3114,0,U,64478,999,5523,.65761101E-3,.19183E-3,0
STARLINK-34528,2025-133H,2026-06-09T10:02:32.998272,15.34407478,.00013968,53.1606,47.8115,70.2333,289.8821,0,U,64479,999,5525,.10021596E-2,.33643E-3,0
STARLINK-34518,2025-133J,2026-06-09T09:46:54.084288,15.30215121,.00011572,53.1597,50.5818,83.5569,276.5563,0,U,64480,999,5507,.65922237E-3,.19225E-3,0
STARLINK-34526,2025-133K,2026-06-09T09:42:20.436480,15.30216873,.00009105,53.1590,50.5602,88.8657,271.2448,0,U,64481,999,5512,.62605321E-3,.18238E-3,0
STARLINK-34527,2025-133L,2026-06-09T09:28:39.469728,15.30230295,.0001399,53.1595,50.5008,116.0780,244.0365,0,U,64482,999,5523,.73590604E-3,.2152E-3,0
STARLINK-34420,2025-133M,2026-06-09T09:19:34.303872,15.30209348,.00011494,53.1582,50.4588,82.0996,278.0135,0,U,64483,999,5523,.82221446E-3,.24078E-3,0
STARLINK-34509,2025-133N,2026-06-08T23:50:50.062272,15.30212998,.00016243,53.1579,52.9718,91.3984,268.7203,0,U,64484,999,5516,.73045455E-3,.21346E-3,0
STARLINK-34409,2025-133P,2026-06-08T23:47:47.708160,15.30211402,.00009488,53.1584,52.9567,103.0604,257.0502,0,U,64485,999,5516,.83292945E-3,.244E-3,0
STARLINK-34520,2025-133Q,2026-06-08T23:43:14.209824,15.30211388,.00013679,53.1599,52.9349,72.9674,287.1476,0,U,64486,999,5516,.66138568E-3,.19287E-3,0
STARLINK-34477,2025-133R,2026-06-08T23:38:40.752960,15.30208771,.00015212,53.1597,52.9189,77.1476,282.9694,0,U,64487,999,5515,.55491545E-3,.16116E-3,0
STARLINK-34217,2025-133S,2026-06-08T23:34:07.195872,15.30207517,.00010061,53.1592,52.8945,111.4448,248.6660,0,U,64488,999,5505,.76630053E-3,.2241E-3,0
STARLINK-34307,2025-133T,2026-06-08T23:29:33.724320,15.30204942,.00012459,53.1597,52.8766,103.3960,256.7179,0,U,64489,999,5514,.5617715E-3,.16318E-3,0
STARLINK-34505,2025-133U,2026-06-09T10:23:21.164640,15.30192753,.00014742,53.1598,50.7302,93.7718,266.3451,0,U,64490,999,5521,.40342964E-3,.11605E-3,0
STARLINK-34530,2025-133V,2026-06-08T23:21:07.816896,15.34412307,.00015405,53.1593,50.0003,67.4418,292.6748,0,U,64491,999,5517,.76116258E-3,.25438E-3,0
STARLINK-34522,2025-133W,2026-06-09T10:11:38.425920,15.34411071,.00014984,53.1600,47.8460,57.8370,302.2778,0,U,64492,999,5527,.63426953E-3,.21121E-3,0
STARLINK-34462,2025-133X,2026-06-09T10:08:36.464928,15.34399204,.00011747,53.1591,47.8303,77.4378,282.6756,0,U,64493,999,5527,-.7024477E-5,-.614E-5,0
STARLINK-34226,2025-133Y,2026-06-09T09:48:23.320800,15.31781353,.00008318,53.1603,50.5785,105.2309,254.8784,0,U,64494,999,5506,.11830799E-2,.36621E-3,0
STARLINK-34364,2025-133Z,2026-06-08T23:33:07.047648,15.34410835,.00009989,53.1601,49.3271,104.2215,255.8899,0,U,64495,999,5521,.77149796E-3,.25789E-3,0
STARLINK-34363,2025-133AB,2026-06-09T09:59:30.977664,15.34418209,.00012321,53.1596,47.7890,70.2660,289.8476,0,U,64497,999,5527,.1047479E-2,.35201E-3,0
STARLINK-34427,2025-133AC,2026-06-09T09:49:56.412480,15.30209304,.00015689,53.1614,50.5824,83.0759,277.0420,0,U,64498,999,5523,.37602363E-3,.10797E-3,0
STARLINK-34280,2025-137A,2026-06-09T13:52:49.533312,15.30209595,.00011421,53.1593,268.4147,79.5507,280.5623,0,U,64594,999,5480,.65027124E-3,.18955E-3,0
STARLINK-34517,2025-137B,2026-06-09T14:00:04.000032,15.34379260,.0001604,53.1589,268.4901,90.3019,246.7694,0,U,64595,999,570,-.36487081E-4,-.1608E-4,0
STARLINK-34510,2025-137C,2026-06-09T12:38:47.023296,15.29326486,.00158017,53.1575,268.8037,101.4627,258.8149,0,U,64596,999,5479,-.19793825E-1,-.534844E-2,0
STARLINK-34486,2025-137D,2026-06-09T13:13:28.445088,15.30207399,.00012855,53.1613,268.9494,71.8207,288.2934,0,U,64597,999,5479,.9174748E-3,.26918E-3,0
STARLINK-34463,2025-137E,2026-06-09T14:00:04.000032,15.34374643,.00013257,53.1581,268.5101,74.3374,251.1134,0,U,64598,999,587,-.48918111E-4,-.2027E-4,0
STARLINK-34294,2025-137F,2026-06-09T12:40:02.726976,15.30220160,.00009744,53.1584,268.8084,86.9181,273.1932,0,U,64599,999,5479,.94401757E-3,.27722E-3,0
STARLINK-34504,2025-137G,2026-06-09T13:10:26.420160,15.30200884,.00013466,53.1590,268.9424,64.7925,295.3215,0,U,64600,999,5479,.92877509E-3,.2725E-3,0
STARLINK-34508,2025-137H,2026-06-09T12:05:05.842176,15.30247547,.00014634,53.1592,268.6550,68.0344,292.0812,0,U,64601,999,5479,.15451054E-2,.45752E-3,0
STARLINK-34435,2025-137J,2026-06-09T14:09:32.143968,15.30224947,.00015562,53.1593,268.4868,99.3188,260.7989,0,U,64602,999,5480,.58432484E-3,.17E-3,0
STARLINK-34475,2025-137K,2026-06-09T14:00:24.677280,15.30227290,.00014545,53.1602,268.4479,99.1047,261.0119,0,U,64603,999,5480,.69191151E-3,.20206E-3,0
